STARLINK-36430          
1 67326U 26002X   26019.25002315 -.00121182  00000+0 -79497-3 0  9995
2 67326  42.9987 249.6689 0001542 264.9300 263.6166 15.75100815  3629
STARLINK-36501          
1 67327U 26002Y   26019.25002315 -.00129647  00000+0 -85121-3 0  9991
2 67327  42.9988 249.6746 0002058 269.4144 257.2095 15.75108691  3477
STARLINK-36489          
1 67328U 26002Z   26019.25002315 -.00137373  00000+0 -90270-3 0  9998
2 67328  42.9988 249.6648 0001831 276.1528 254.3003 15.75115482  3628
STARLINK-36496          
1 67329U 26002AA  26019.25002315 -.00029821  00000+0 -19158-3 0  9993
2 67329  42.9988 249.6540 0001488 280.1044 254.2046 15.75054106  3458
STARLINK-36483          
1 67330U 26002AB  26019.25002315 -.00025072  00000+0 -16044-3 0  9990
2 67330  42.9987 249.6440 0001944 269.6874 268.4537 15.75059024  3623
STARLINK-36494          
1 67331U 26002AC  26019.25002315 -.00111526  00000+0 -73063-3 0  9995
2 67331  42.9986 249.6589 0001524 272.9717 259.4037 15.75098194  3620
STARLINK-36492          
1 67332U 26002AD  26019.25002315 -.00062984  00000+0 -40890-3 0  9991
2 67332  42.9988 249.6492 0002444 268.0333 268.1591 15.75094949  3624
STARLINK-36427          
1 67333U 26002AE  26019.25002315 -.01872370  00000+0 -10308-1 0  9990
2 67333  42.9946 249.0531 0001857 276.0296 135.6775 15.81707060  3524
STARLINK-35343          
1 67334U 26003A   26019.25002315 -.01308022  00000+0 -52615-2 0  9998
2 67334  42.9983 153.1996 0001650 274.4338  87.8414 15.88040926  2666
STARLINK-36486          
1 67335U 26003B   26019.25002315 -.01296856  00000+0 -52061-2 0  9995
2 67335  42.9984 153.1955 0001607 270.5663  93.4641 15.88058612  2726
STARLINK-36480          
1 67336U 26003C   26019.25002315 -.01304355  00000+0 -52328-2 0  9996
2 67336  42.9984 153.1899 0001658 270.0934  96.2129 15.88086332  2728
STARLINK-36410          
1 67337U 26003D   26019.25002315 -.01310335  00000+0 -52518-2 0  9993
2 67337  42.9985 153.1838 0001852 269.0706  99.5112 15.88114916  2722
