CCSDS_OMM_VERS = 2.0
CREATION_DATE  = 
ORIGINATOR     = 

OBJECT_NAME    = STARLINK-36430
OBJECT_ID      = 2026-002X
CENTER_NAME    = EARTH
REF_FRAME      = TEME
TIME_SYSTEM    = UTC
MEAN_ELEMENT_THEORY = SGP/SGP4

EPOCH          = 2026-01-19T06:00:02.000160
MEAN_MOTION    = 15.75100815
ECCENTRICITY   = .0001542
INCLINATION    = 42.9987
RA_OF_ASC_NODE = 249.6689
ARG_OF_PERICENTER = 264.9300
MEAN_ANOMALY   = 263.6166

EPHEMERIS_TYPE = 0
CLASSIFICATION_TYPE = U
NORAD_CAT_ID   = 67326
ELEMENT_SET_NO = 999
REV_AT_EPOCH   = 362
BSTAR          = -.79497107E-3
MEAN_MOTION_DOT = -.121182E-2
MEAN_MOTION_DDOT = 0

CCSDS_OMM_VERS = 2.0
CREATION_DATE  = 
ORIGINATOR     = 

OBJECT_NAME    = STARLINK-36501
OBJECT_ID      = 2026-002Y
CENTER_NAME    = EARTH
REF_FRAME      = TEME
TIME_SYSTEM    = UTC
MEAN_ELEMENT_THEORY = SGP/SGP4

EPOCH          = 2026-01-19T06:00:02.000160
MEAN_MOTION    = 15.75108691
ECCENTRICITY   = .00020583
INCLINATION    = 42.9988
RA_OF_ASC_NODE = 249.6746
ARG_OF_PERICENTER = 269.4144
MEAN_ANOMALY   = 257.2095

EPHEMERIS_TYPE = 0
CLASSIFICATION_TYPE = U
NORAD_CAT_ID   = 67327
ELEMENT_SET_NO = 999
REV_AT_EPOCH   = 347
BSTAR          = -.8512056E-3
MEAN_MOTION_DOT = -.129647E-2
MEAN_MOTION_DDOT = 0

CCSDS_OMM_VERS = 2.0
CREATION_DATE  = 
ORIGINATOR     = 

OBJECT_NAME    = STARLINK-36489
OBJECT_ID      = 2026-002Z
CENTER_NAME    = EARTH
REF_FRAME      = TEME
TIME_SYSTEM    = UTC
MEAN_ELEMENT_THEORY = SGP/SGP4

EPOCH          = 2026-01-19T06:00:02.000160
MEAN_MOTION    = 15.75115482
ECCENTRICITY   = .00018314
INCLINATION    = 42.9988
RA_OF_ASC_NODE = 249.6648
ARG_OF_PERICENTER = 276.1528
MEAN_ANOMALY   = 254.3003

EPHEMERIS_TYPE = 0
CLASSIFICATION_TYPE = U
NORAD_CAT_ID   = 67328
ELEMENT_SET_NO = 999
REV_AT_EPOCH   = 362
BSTAR          = -.90270373E-3
MEAN_MOTION_DOT = -.137373E-2
MEAN_MOTION_DDOT = 0

CCSDS_OMM_VERS = 2.0
CREATION_DATE  = 
ORIGINATOR     = 

OBJECT_NAME    = STARLINK-36496
OBJECT_ID      = 2026-002AA
CENTER_NAME    = EARTH
REF_FRAME      = TEME
TIME_SYSTEM    = UTC
MEAN_ELEMENT_THEORY = SGP/SGP4

EPOCH          = 2026-01-19T06:00:02.000160
MEAN_MOTION    = 15.75054106
ECCENTRICITY   = .00014881
INCLINATION    = 42.9988
RA_OF_ASC_NODE = 249.6540
ARG_OF_PERICENTER = 280.1044
MEAN_ANOMALY   = 254.2046

EPHEMERIS_TYPE = 0
CLASSIFICATION_TYPE = U
NORAD_CAT_ID   = 67329
ELEMENT_SET_NO = 999
REV_AT_EPOCH   = 345
BSTAR          = -.19158156E-3
MEAN_MOTION_DOT = -.29821E-3
MEAN_MOTION_DDOT = 0

CCSDS_OMM_VERS = 2.0
CREATION_DATE  = 
ORIGINATOR     = 

OBJECT_NAME    = STARLINK-36483
OBJECT_ID      = 2026-002AB
CENTER_NAME    = EARTH
REF_FRAME      = TEME
TIME_SYSTEM    = UTC
MEAN_ELEMENT_THEORY = SGP/SGP4

EPOCH          = 2026-01-19T06:00:02.000160
MEAN_MOTION    = 15.75059024
ECCENTRICITY   = .00019441
INCLINATION    = 42.9987
RA_OF_ASC_NODE = 249.6440
ARG_OF_PERICENTER = 269.6874
MEAN_ANOMALY   = 268.4537

EPHEMERIS_TYPE = 0
CLASSIFICATION_TYPE = U
NORAD_CAT_ID   = 67330
ELEMENT_SET_NO = 999
REV_AT_EPOCH   = 362
BSTAR          = -.1604362E-3
MEAN_MOTION_DOT = -.25072E-3
MEAN_MOTION_DDOT = 0

CCSDS_OMM_VERS = 2.0
CREATION_DATE  = 
ORIGINATOR     = 

OBJECT_NAME    = STARLINK-36494
OBJECT_ID      = 2026-002AC
CENTER_NAME    = EARTH
REF_FRAME      = TEME
TIME_SYSTEM    = UTC
MEAN_ELEMENT_THEORY = SGP/SGP4

EPOCH          = 2026-01-19T06:00:02.000160
MEAN_MOTION    = 15.75098194
ECCENTRICITY   = .00015246
INCLINATION    = 42.9986
RA_OF_ASC_NODE = 249.6589
ARG_OF_PERICENTER = 272.9717
MEAN_ANOMALY   = 259.4037

EPHEMERIS_TYPE = 0
CLASSIFICATION_TYPE = U
NORAD_CAT_ID   = 67331
ELEMENT_SET_NO = 999
REV_AT_EPOCH   = 362
BSTAR          = -.7306323E-3
MEAN_MOTION_DOT = -.111526E-2
MEAN_MOTION_DDOT = 0

CCSDS_OMM_VERS = 2.0
CREATION_DATE  = 
ORIGINATOR     = 

OBJECT_NAME    = STARLINK-36492
OBJECT_ID      = 2026-002AD
CENTER_NAME    = EARTH
REF_FRAME      = TEME
TIME_SYSTEM    = UTC
MEAN_ELEMENT_THEORY = SGP/SGP4

EPOCH          = 2026-01-19T06:00:02.000160
MEAN_MOTION    = 15.75094949
ECCENTRICITY   = .00024445
INCLINATION    = 42.9988
RA_OF_ASC_NODE = 249.6492
ARG_OF_PERICENTER = 268.0333
MEAN_ANOMALY   = 268.1591

EPHEMERIS_TYPE = 0
CLASSIFICATION_TYPE = U
NORAD_CAT_ID   = 67332
ELEMENT_SET_NO = 999
REV_AT_EPOCH   = 362
BSTAR          = -.40890128E-3
MEAN_MOTION_DOT = -.62984E-3
MEAN_MOTION_DDOT = 0

CCSDS_OMM_VERS = 2.0
CREATION_DATE  = 
ORIGINATOR     = 

OBJECT_NAME    = STARLINK-36427
OBJECT_ID      = 2026-002AE
CENTER_NAME    = EARTH
REF_FRAME      = TEME
TIME_SYSTEM    = UTC
MEAN_ELEMENT_THEORY = SGP/SGP4

EPOCH          = 2026-01-19T06:00:02.000160
MEAN_MOTION    = 15.81707060
ECCENTRICITY   = .00018578
INCLINATION    = 42.9946
RA_OF_ASC_NODE = 249.0531
ARG_OF_PERICENTER = 276.0296
MEAN_ANOMALY   = 135.6775

EPHEMERIS_TYPE = 0
CLASSIFICATION_TYPE = U
NORAD_CAT_ID   = 67333
ELEMENT_SET_NO = 999
REV_AT_EPOCH   = 352
BSTAR          = -.10308125E-1
MEAN_MOTION_DOT = -.187237E-1
MEAN_MOTION_DDOT = 0

CCSDS_OMM_VERS = 2.0
CREATION_DATE  = 
ORIGINATOR     = 

OBJECT_NAME    = STARLINK-35343
OBJECT_ID      = 2026-003A
CENTER_NAME    = EARTH
REF_FRAME      = TEME
TIME_SYSTEM    = UTC
MEAN_ELEMENT_THEORY = SGP/SGP4

EPOCH          = 2026-01-19T06:00:02.000160
MEAN_MOTION    = 15.88040926
ECCENTRICITY   = .00016509
INCLINATION    = 42.9983
RA_OF_ASC_NODE = 153.1996
ARG_OF_PERICENTER = 274.4338
MEAN_ANOMALY   = 87.8414

EPHEMERIS_TYPE = 0
CLASSIFICATION_TYPE = U
NORAD_CAT_ID   = 67334
ELEMENT_SET_NO = 999
REV_AT_EPOCH   = 266
BSTAR          = -.52615381E-2
MEAN_MOTION_DOT = -.1308022E-1
MEAN_MOTION_DDOT = 0

CCSDS_OMM_VERS = 2.0
CREATION_DATE  = 
ORIGINATOR     = 

OBJECT_NAME    = STARLINK-36486
OBJECT_ID      = 2026-003B
CENTER_NAME    = EARTH
REF_FRAME      = TEME
TIME_SYSTEM    = UTC
MEAN_ELEMENT_THEORY = SGP/SGP4

EPOCH          = 2026-01-19T06:00:02.000160
MEAN_MOTION    = 15.88058612
ECCENTRICITY   = .00016072
INCLINATION    = 42.9984
RA_OF_ASC_NODE = 153.1955
ARG_OF_PERICENTER = 270.5663
MEAN_ANOMALY   = 93.4641

EPHEMERIS_TYPE = 0
CLASSIFICATION_TYPE = U
NORAD_CAT_ID   = 67335
ELEMENT_SET_NO = 999
REV_AT_EPOCH   = 272
BSTAR          = -.5206115E-2
MEAN_MOTION_DOT = -.1296856E-1
MEAN_MOTION_DDOT = 0

CCSDS_OMM_VERS = 2.0
CREATION_DATE  = 
ORIGINATOR     = 

OBJECT_NAME    = STARLINK-36480
OBJECT_ID      = 2026-003C
CENTER_NAME    = EARTH
REF_FRAME      = TEME
TIME_SYSTEM    = UTC
MEAN_ELEMENT_THEORY = SGP/SGP4

EPOCH          = 2026-01-19T06:00:02.000160
MEAN_MOTION    = 15.88086332
ECCENTRICITY   = .00016585
INCLINATION    = 42.9984
RA_OF_ASC_NODE = 153.1899
ARG_OF_PERICENTER = 270.0934
MEAN_ANOMALY   = 96.2129

EPHEMERIS_TYPE = 0
CLASSIFICATION_TYPE = U
NORAD_CAT_ID   = 67336
ELEMENT_SET_NO = 999
REV_AT_EPOCH   = 272
BSTAR          = -.52327709E-2
MEAN_MOTION_DOT = -.1304355E-1
MEAN_MOTION_DDOT = 0

CCSDS_OMM_VERS = 2.0
CREATION_DATE  = 
ORIGINATOR     = 

OBJECT_NAME    = STARLINK-36410
OBJECT_ID      = 2026-003D
CENTER_NAME    = EARTH
REF_FRAME      = TEME
TIME_SYSTEM    = UTC
MEAN_ELEMENT_THEORY = SGP/SGP4

EPOCH          = 2026-01-19T06:00:02.000160
MEAN_MOTION    = 15.88114916
ECCENTRICITY   = .00018526
INCLINATION    = 42.9985
RA_OF_ASC_NODE = 153.1838
ARG_OF_PERICENTER = 269.0706
MEAN_ANOMALY   = 99.5112

EPHEMERIS_TYPE = 0
CLASSIFICATION_TYPE = U
NORAD_CAT_ID   = 67337
ELEMENT_SET_NO = 999
REV_AT_EPOCH   = 272
BSTAR          = -.52517652E-2
MEAN_MOTION_DOT = -.1310335E-1
MEAN_MOTION_DDOT = 0

